STARLINK-31345          
1 58941U 24027L   25068.69302379  .00000455  00000+0  27482-4 0  9992
2 58941  53.1605 205.1399 0001055  94.8712 265.2410 15.30195881 61446
STARLINK-31354          
1 58942U 24027M   25068.76150017  .00000034  00000+0  13281-4 0  9996
2 58942  53.1591 204.8546 0000953  97.5398 262.5711 15.30199887 61294
STARLINK-31346          
1 58943U 24027N   25068.65886638  .00059924  00000+0  18453-2 0  9996
2 58943  53.1568 204.9320 0002002 346.4342  13.6605 15.33089134 61442
STARLINK-31336          
1 58944U 24027P   25068.63930951  .00001702  00000+0  69566-4 0  9997
2 58944  53.1597 205.5147 0000859  75.0246 285.0850 15.30203960 61422
STARLINK-31359          
1 58945U 24027Q   25068.73251587  .00066099  00000+0  14096-2 0  9996
2 58945  53.1570 179.6986 0002120  58.1987 301.9226 15.44309950 61812
STARLINK-31331          
1 58946U 24027R   25068.74884858 -.00000472  00000+0 -38144-5 0  9999
2 58946  53.1604 204.7774 0001073  97.2952 262.8170 15.30185872 61215
STARLINK-31116          
1 58947U 24027S   25068.75200532  .00000596  00000+0  32264-4 0  9993
2 58947  53.1598 204.7931 0000972 125.3682 234.7409 15.30191997 61457
STARLINK-31311          
1 58948U 24027T   25068.78406326  .00001937  00000+0  68812-4 0  9994
2 58948  53.1600 202.8617 0000993  91.1753 268.9363 15.34226113 61488
STARLINK-31294          
1 58949U 24027U   25068.77522565 -.00001372  00000+0 -34216-4 0  9994
2 58949  53.1605 204.9390 0001111  79.5524 280.5602 15.30196920 61455
STARLINK-31330          
1 58951U 24027W   25069.20844105 -.00126139  00000+0 -38384-2 0  9990
2 58951  53.1601 199.8459 0000888  30.1374 329.9679 15.33959443 61416
STARLINK-31293          
1 58952U 24027X   25068.61187670  .00000992  00000+0  45610-4 0  9990
2 58952  53.1584 205.3403 0000776  98.4218 261.6870 15.30200109 61431
STARLINK-31373          
1 58965U 24031A   25068.75136277  .00003481  00000+0  12955-3 0  9992
2 58965  53.1598 191.5013 0001045  74.9269 285.1847 15.30210407 60669
STARLINK-31449          
1 58966U 24031B   25068.74925615  .00003841  00000+0  14169-3 0  9993
2 58966  53.1601 191.4863 0001498  96.0864 264.0308 15.30214018 60665
STARLINK-31314          
1 58967U 24031C   25068.75561111 -.00002982  00000+0 -88682-4 0  9991
2 58967  53.1614 191.5285 0001177  78.6026 281.5107 15.30174747 60664
STARLINK-31356          
1 58968U 24031D   25068.00002315  .00005750  00000+0  47450-4 0  9998
2 58968  53.1576 172.5465 0000921  94.7789 218.6413 15.72103622 60810
STARLINK-31335          
1 58969U 24031E   25069.25002315  .00119010  00000+0  39762-2 0  9997
2 58969  53.1600 186.7656 0001477  43.0923 333.7008 15.30120273 60850
STARLINK-31368          
1 58970U 24031F   25068.63446876 -.00001530  00000+0 -39555-4 0  9995
2 58970  53.1609 192.1934 0001047  95.1913 264.9208 15.30194207 60643
STARLINK-31333          
1 58971U 24031G   25068.64846933  .00043195  00000+0  10345-2 0  9990
2 58971  53.1570 188.7287 0003093 323.0405  37.0387 15.41029196 60693
STARLINK-31351          
1 58972U 24031H   25068.64184993  .00002382  00000+0  92544-4 0  9998
2 58972  53.1598 192.2392 0000924  75.0082 285.1021 15.30194886 60683
STARLINK-31365          
1 58973U 24031J   25068.71349139  .00000564  00000+0  31151-4 0  9999
2 58973  53.1615 191.9747 0001419  83.8954 276.2208 15.30205148 60658
STARLINK-31361          
1 58974U 24031K   25068.77563609  .00004496  00000+0  16376-3 0  9995
2 58974  53.1587 191.6499 0000733  85.9683 274.1401 15.30212428 60660
STARLINK-31369          
1 58975U 24031L   25068.65135444  .00006273  00000+0  22373-3 0  9994
2 58975  53.1586 192.2982 0001606 106.5338 253.5840 15.30200168 60623
STARLINK-31324          
1 58976U 24031M   25068.71982944 -.00001646  00000+0 -43462-4 0  9991
2 58976  53.1605 192.0131 0001322  97.0030 263.1121 15.30195984 60637
STARLINK-31358          
1 58977U 24031N   25068.75243191 -.00001407  00000+0 -35414-4 0  9993
2 58977  53.1610 191.4925 0001152  86.4779 273.6354 15.30192310 60646
STARLINK-31355          
1 58978U 24031P   25068.72298944  .00001815  00000+0  73382-4 0  9994
2 58978  53.1618 192.0314 0001340  99.6753 260.4399 15.30201016 60637
STARLINK-31380          
1 58979U 24031Q   25068.66083978  .00001793  00000+0  72651-4 0  9990
2 58979  53.1604 192.3536 0001322 101.2119 258.9030 15.30198584 60626
STARLINK-31353          
1 58980U 24031R   25068.72403983  .00005204  00000+0  18761-3 0  9993
2 58980  53.1592 192.0411 0001236 109.1979 250.9156 15.30218275 60630
STARLINK-31339          
1 58981U 24031S   25069.18654294 -.00002315  00000+0 -66117-4 0  9999
2 58981  53.1609 189.9470 0001293 113.0471 247.0666 15.30178399 60729
STARLINK-31384          
1 58983U 24031U   25068.73565673  .00000291  00000+0  21965-4 0  9994
2 58983  53.1600 192.1101 0001232  86.2021 273.9120 15.30198098 60635
STARLINK-31379          
1 58984U 24031V   25068.73986789  .00001626  00000+0  67004-4 0  9997
2 58984  53.1602 192.1342 0001293  93.8065 266.3084 15.30210173 60638
STARLINK-31385          
1 58985U 24031W   25068.71505844  .00001525  00000+0  63581-4 0  9999
2 58985  53.1606 189.8091 0001342 114.5938 245.5203 15.30211327 60669
STARLINK-31229          
1 58986U 24031X   25068.61557880  .00000338  00000+0  23549-4 0  9997
2 58986  53.1598 192.7817 0001268  86.0767 274.0379 15.30198699 60633
STARLINK-31468          
1 58998U 24036A   25069.14422381 -.00010863  00000+0 -35555-3 0  9996
2 58998  53.1586 331.1333 0000869  67.7243 292.3850 15.30166388 59529
STARLINK-31440          
1 58999U 24036B   25068.88507734 -.00009500  00000+0 -30940-3 0  9992
2 58999  53.1591 332.3551 0001194  32.5437 327.5637 15.30159852 59216
STARLINK-31529          
1 59000U 24036C   25069.03313170 -.00004553  00000+0 -14186-3 0  9990
2 59000  53.1608 329.7336 0001232  93.0538 267.0604 15.30162905 59537
STARLINK-31431          
1 59002U 24036E   25068.99472665 -.00004050  00000+0 -12482-3 0  9990
2 59002  53.1605 332.3298 0001682  42.8080 317.3051 15.30162216 59503
STARLINK-31435          
1 59004U 24036G   25068.88614433 -.00004096  00000+0 -12638-3 0  9994
2 59004  53.1600 332.3593 0001220  69.9989 290.1143 15.30163455 59498
STARLINK-31484          
1 59005U 24036H   25068.88931137 -.00004603  00000+0 -14355-3 0  9990
2 59005  53.1609 332.3790 0001087  56.4133 303.6972 15.30163568 59541
STARLINK-31450          
1 59006U 24036J   25069.09263852 -.00000265  00000+0  31628-5 0  9990
2 59006  53.1596 331.5154 0000689 122.7388 237.3679 15.30163050 59518
STARLINK-31456          
1 59007U 24036K   25069.02308395 -.00010921  00000+0 -35740-3 0  9994
2 59007  53.1594 331.7897 0000865  76.4033 283.7064 15.30176798 59506
STARLINK-31460          
1 59008U 24036L   25068.92200524 -.00000021  00000+0  11424-4 0  9991
2 59008  53.1617 332.5844 0001799 111.1492 248.9701 15.30181968 59479
STARLINK-31488          
1 59009U 24036M   25069.01885098  .00000615  00000+0  32879-4 0  9993
2 59009  53.1588 331.7643 0001156  84.7303 275.3830 15.30201087 59504
STARLINK-31528          
1 59010U 24036N   25069.13907056 -.00003703  00000+0 -11306-3 0  9991
2 59010  53.1597 331.8028 0001086  67.1103 293.0012 15.30171719 59528
STARLINK-31491          
1 59011U 24036P   25068.94418262 -.00003677  00000+0 -11221-3 0  9992
2 59011  53.1598 332.7167 0001175  49.1830 310.9272 15.30160250 59479
STARLINK-31465          
1 59012U 24036Q   25069.13483680 -.00002841  00000+0 -83881-4 0  9995
2 59012  53.1605 331.7758 0001304  83.3345 276.7804 15.30175249 59518
STARLINK-31389          
1 59013U 24036R   25069.20331095 -.00011250  00000+0 -36850-3 0  9993
2 59013  53.1592 331.4925 0000662  90.3758 269.7319 15.30182625 59574
STARLINK-31454          
1 59014U 24036S   25069.13168999 -.00004661  00000+0 -14552-3 0  9990
2 59014  53.1601 331.7532 0001300  83.8029 276.3119 15.30163212 59518
STARLINK-31521          
1 59015U 24036T   25069.13063438 -.00010223  00000+0 -33410-3 0  9998
2 59015  53.1599 331.7472 0001143 109.8545 250.2579 15.30141957 59518
STARLINK-31526          
1 59016U 24036U   25068.93461348 -.00000099  00000+0  87935-5 0  9990
2 59016  53.1587 307.0406 0000764  83.5553 276.5535 15.30165128 59838
STARLINK-31406          
1 59017U 24036V   25069.14566812  .00027369  00000+0  80853-3 0  9995
2 59017  53.1616 331.1328 0003254 192.7541 167.3380 15.34773176 59523
STARLINK-31527          
1 59018U 24036W   25068.99050264 -.00003292  00000+0 -99163-4 0  9993
2 59018  53.1616 332.3001 0001522  68.4715 291.6448 15.30164501 59509
STARLINK-31436          
1 59019U 24036X   25069.14117290 -.00006048  00000+0 -19245-3 0  9999
2 59019  53.1591 331.8103 0001143  81.5549 278.5581 15.30163994 59517
STARLINK-30996          
1 59023U 24038A   25069.02329797  .00002351  00000+0  99637-4 0  9995
2 59023  43.0005 284.1771 0000987 252.2054 107.8689 15.25919841 59049
STARLINK-31006          
1 59024U 24038B   25068.88463591  .00000752  00000+0  25278-4 0  9993
2 59024  43.0011 237.2557 0001461 268.5375  91.5314 15.40685137 59546
STARLINK-31178          
1 59025U 24038C   25068.89011898 -.00005231  00000+0 -19014-3 0  9993
2 59025  42.9985 284.8983 0000943 268.9123  91.1620 15.25932156 58886
STARLINK-31227          
1 59026U 24038D   25068.88787054 -.00000560  00000+0 -11568-4 0  9994
2 59026  42.9982 284.8845 0000871 287.6565  72.4191 15.25910468 58998
STARLINK-30863          
1 59027U 24038E   25068.93296041  .00003918  00000+0  15946-3 0  9993
2 59027  42.9994 284.3643 0001533 269.4683  90.5992 15.25926102 58901
STARLINK-31206          
1 59028U 24038F   25068.79459432 -.00000519  00000+0 -51521-5 0  9990
2 59028  43.0041 224.1597 0002389 251.3961 108.6636 15.40689355 59704
STARLINK-31224          
1 59029U 24038G   25068.88334105 -.00012601  00000+0 -47161-3 0  9998
2 59029  42.9981 284.8502 0001144 257.1346 102.9377 15.25984868 58993
